NORAD_CAT_ID,OBJECT_NAME,OBJECT_TYPE,EPOCH,MEAN_MOTION,ECCENTRICITY,INCLINATION,RA_OF_ASC_NODE,ARG_OF_PERICENTER,MEAN_ANOMALY,BSTAR,MEAN_MOTION_DOT,MEAN_MOTION_DDOT,TLE_LINE0,TLE_LINE1,TLE_LINE2,SEMIMAJOR_AXIS,PERIOD,APOGEE,PERIGEE,DECAYED
53136.0,STARLINK-4152,PAYLOAD,2024-07-13 04:06:53,15.08837785,0.000129,53.2179,7.9049,88.7357,271.3783,8.0855e-05,9.99e-06,0.0,0 STARLINK-4152,1 53136U 22083E   24195.17145350  .00000999  00000-0  80855-4 0  9997,2 53136  53.2179   7.9049 0001290  88.7357 271.3783 15.08837785110584,6917.887,95.438,540.645,538.86,0.0
53136.0,STARLINK-4152,PAYLOAD,2024-07-13 12:03:49,15.08835848,0.0001319,53.2186,6.4235,99.6172,260.4969,-1.3188e-05,-4.98e-06,0.0,0 STARLINK-4152,1 53136U 22083E   24195.50265918 -.00000498  00000-0 -13188-4 0  9998,2 53136  53.2186   6.4235 0001319  99.6172 260.4969 15.08835848110999,6917.893,95.438,540.671,538.846,0.0
53136.0,STARLINK-4152,PAYLOAD,2024-07-13 21:36:07,15.08845678,0.0001299,53.2193,4.6383,94.3914,265.7226,0.00013152,1.806e-05,0.0,0 STARLINK-4152,1 53136U 22083E   24195.90009085  .00001806  00000-0  13152-3 0  9995,2 53136  53.2193   4.6383 0001299  94.3914 265.7226 15.08845678111058,6917.863,95.437,540.627,538.829,0.0
53136.0,STARLINK-4152,PAYLOAD,2024-07-14 11:54:36,15.08835063,0.0001222,53.2181,1.9607,86.8187,273.2945,-2.1793e-05,-6.35e-06,0.0,0 STARLINK-4152,1 53136U 22083E   24196.49625723 -.00000635  00000-0 -21793-4 0  9995,2 53136  53.2181   1.9607 0001222  86.8187 273.2945 15.08835063110786,6917.895,95.438,540.606,538.915,0.0
53136.0,STARLINK-4152,PAYLOAD,2024-07-14 18:16:08,15.08842724,0.0001219,53.2186,0.7745,95.8678,264.2453,0.00011118,1.482e-05,0.0,0 STARLINK-4152,1 53136U 22083E   24196.76121360  .00001482  00000-0  11118-3 0  9991,2 53136  53.2186   0.7745 0001219  95.8678 264.2453 15.08842724111183,6917.872,95.437,540.58,538.894,0.0
53136.0,STARLINK-4152,PAYLOAD,2024-07-15 10:10:00,15.08835474,0.0001331,53.2188,357.8018,102.2491,257.865,7.9936e-05,9.84e-06,0.0,0 STARLINK-4152,1 53136U 22083E   24197.42362156  .00000984  00000-0  79936-4 0  9994,2 53136  53.2188 357.8018 0001331 102.2491 257.8650 15.08835474111287,6917.894,95.438,540.68,538.838,0.0
53136.0,STARLINK-4152,PAYLOAD,2024-07-15 18:06:56,15.08838062,0.0001469,53.219,356.3134,90.231,269.885,4.7475e-05,4.68e-06,0.0,0 STARLINK-4152,1 53136U 22083E   24197.75481964  .00000468  00000-0  47475-4 0  9999,2 53136  53.2190 356.3134 0001469  90.2310 269.8850 15.08838062110977,6917.886,95.438,540.768,538.735,0.0
53136.0,STARLINK-4152,PAYLOAD,2024-07-16 14:46:56,15.08843171,0.000116,53.219,352.4496,97.1426,262.9698,0.00012075,1.635e-05,0.0,0 STARLINK-4152,1 53136U 22083E   24198.61593642  .00001635  00000-0  12075-3 0  9996,2 53136  53.2190 352.4496 0001160  97.1426 262.9698 15.08843171111463,6917.871,95.437,540.538,538.933,0.0
53136.0,STARLINK-4152,PAYLOAD,2024-07-16 16:22:19,15.08848188,0.0001216,53.2179,352.1508,87.2595,272.8537,0.00012463,1.697e-05,0.0,0 STARLINK-4152,1 53136U 22083E   24198.68217393  .00001697  00000-0  12463-3 0  9998,2 53136  53.2179 352.1508 0001216  87.2595 272.8537 15.08848188111476,6917.855,95.437,540.562,538.879,0.0
53136.0,STARLINK-4152,PAYLOAD,2024-07-17 09:51:35,15.08834416,0.0001564,53.2193,348.8796,84.186,275.9311,4.0931e-05,3.63e-06,0.0,0 STARLINK-4152,1 53136U 22083E   24199.41082432  .00000363  00000-0  40931-4 0  9995,2 53136  53.2193 348.8796 0001564  84.1860 275.9311 15.08834416111226,6917.897,95.438,540.844,538.68,0.0
53136.0,STARLINK-4152,PAYLOAD,2024-07-17 14:37:44,15.08833963,0.0001288,53.2184,347.9874,70.8842,289.2289,5.1963e-05,5.39e-06,0.0,0 STARLINK-4152,1 53136U 22083E   24199.60954529  .00000539  00000-0  51963-4 0  9993,2 53136  53.2184 347.9874 0001288  70.8842 289.2289 15.08833963111619,6917.899,95.438,540.655,538.873,0.0
53136.0,STARLINK-4152,PAYLOAD,2024-07-17 16:13:07,15.08835621,0.0001545,53.2194,347.6898,83.6348,276.482,6.6329e-05,7.68e-06,0.0,0 STARLINK-4152,1 53136U 22083E   24199.67578567  .00000768  00000-0  66329-4 0  9990,2 53136  53.2194 347.6898 0001545  83.6348 276.4820 15.08835621111625,6917.894,95.438,540.828,538.69,0.0
53136.0,STARLINK-4152,PAYLOAD,2024-07-18 12:53:08,15.08843564,0.000146,53.2188,343.8244,80.8026,279.3132,0.00013581,1.874e-05,0.0,0 STARLINK-4152,1 53136U 22083E   24200.53690346  .00001874  00000-0  13581-3 0  9998,2 53136  53.2188 343.8244 0001460  80.8026 279.3132 15.08843564111396,6917.869,95.437,540.745,538.724,0.0
53136.0,STARLINK-4152,PAYLOAD,2024-07-18 14:28:31,15.0884581,0.0001485,53.2191,343.5271,81.47,278.646,0.00017223,2.455e-05,0.0,0 STARLINK-4152,1 53136U 22083E   24200.60314261  .00002455  00000-0  17223-3 0  9998,2 53136  53.2191 343.5271 0001485  81.4700 278.6460 15.08845810111763,6917.863,95.437,540.755,538.7,0.0
53136.0,STARLINK-4152,PAYLOAD,2024-07-18 16:03:54,15.08848673,0.0001505,53.2189,343.229,84.5832,275.5332,0.00021106,3.073e-05,0.0,0 STARLINK-4152,1 53136U 22083E   24200.66938116  .00003073  00000-0  21106-3 0  9997,2 53136  53.2189 343.2290 0001505  84.5832 275.5332 15.08848673111776,6917.854,95.437,540.76,538.678,0.0
53136.0,STARLINK-4152,PAYLOAD,2024-07-19 14:19:18,15.08843647,0.0001372,53.2189,339.0665,79.37,280.7446,0.00021492,3.135e-05,0.0,0 STARLINK-4152,1 53136U 22083E   24201.59674365  .00003135  00000-0  21492-3 0  9990,2 53136  53.2189 339.0665 0001372  79.3700 280.7446 15.08843647111919,6917.869,95.437,540.683,538.785,0.0
53136.0,STARLINK-4152,PAYLOAD,2024-07-19 15:54:41,15.08846261,0.0001394,53.2189,338.7681,83.8018,276.3132,0.00023228,3.411e-05,0.0,0 STARLINK-4152,1 53136U 22083E   24201.66298168  .00003411  00000-0  23228-3 0  9997,2 53136  53.2189 338.7681 0001394  83.8018 276.3132 15.08846261111568,6917.861,95.437,540.691,538.762,0.0
53136.0,STARLINK-4152,PAYLOAD,2024-07-20 12:34:42,15.08843104,0.0001462,53.2185,334.9024,109.9136,250.2014,7.2947e-05,8.73e-06,0.0,0 STARLINK-4152,1 53136U 22083E   24202.52410133  .00000873  00000-0  72947-4 0  9993,2 53136  53.2185 334.9024 0001462 109.9136 250.2014 15.08843104111697,6917.871,95.437,540.747,538.725,0.0
53136.0,STARLINK-4152,PAYLOAD,2024-07-20 14:10:05,15.08840181,0.0001277,53.2188,334.6066,90.8265,269.2873,6.5685e-05,7.58e-06,0.0,0 STARLINK-4152,1 53136U 22083E   24202.59034368  .00000758  00000-0  65685-4 0  9995,2 53136  53.2188 334.6066 0001277  90.8265 269.2873 15.08840181112065,6917.88,95.438,540.628,538.861,0.0
53136.0,STARLINK-4152,PAYLOAD,2024-07-20 15:45:28,15.08843342,0.0001234,53.2181,334.3091,90.6896,269.4237,0.00012748,1.742e-05,0.0,0 STARLINK-4152,1 53136U 22083E   24202.65658169  .00001742  00000-0  12748-3 0  9998,2 53136  53.2181 334.3091 0001234  90.6896 269.4237 15.08843342112073,6917.87,95.437,540.589,538.882,0.0
53136.0,STARLINK-4152,PAYLOAD,2024-07-21 12:25:30,15.08829529,0.0001521,53.2183,330.4391,75.2938,284.8222,-0.00017301,-3.04e-05,0.0,0 STARLINK-4152,1 53136U 22083E   24203.51770908 -.00003040  00000-0 -17301-3 0  9995,2 53136  53.2183 330.4391 0001521  75.2938 284.8222 15.08829529111840,6917.912,95.438,540.83,538.725,0.0
53136.0,STARLINK-4152,PAYLOAD,2024-07-21 14:00:53,15.08831543,0.0001503,53.2187,330.1443,78.8327,281.2834,-0.00010937,-2.028e-05,0.0,0 STARLINK-4152,1 53136U 22083E   24203.58394944 -.00002028  00000-0 -10937-3 0  9997,2 53136  53.2187 330.1443 0001503  78.8327 281.2834 15.08831543112211,6917.906,95.438,540.811,538.731,0.0
53136.0,STARLINK-4152,PAYLOAD,2024-07-22 17:02:25,15.08847974,0.000149,53.2193,325.0925,91.797,268.3193,0.0001662,2.359e-05,0.0,0 STARLINK-4152,1 53136U 22083E   24204.71002246  .00002359  00000-0  16620-3 0  9994,2 53136  53.2193 325.0925 0001490  91.7970 268.3193 15.08847974112027,6917.856,95.437,540.752,538.69,0.0
53136.0,STARLINK-4152,PAYLOAD,2024-07-23 07:20:54,15.08831234,0.0001448,53.2184,322.4154,101.9349,258.1805,0.00047359,7.255e-05,0.0,0 STARLINK-4152,1 53136U 22083E   24205.30619128  .00007255  00000-0  47359-3 0  9996,2 53136  53.2184 322.4154 0001448 101.9349 258.1805 15.08831234112118,6917.907,95.438,540.774,538.77,0.0
53136.0,STARLINK-4152,PAYLOAD,2024-07-23 16:53:13,15.08842129,0.000135,53.2182,320.63,100.1478,259.9667,9.4057e-05,1.209e-05,0.0,0 STARLINK-4152,1 53136U 22083E   24205.70362489  .00001209  00000-0  94057-4 0  9996,2 53136  53.2182 320.6300 0001350 100.1478 259.9667 15.08842129112171,6917.874,95.437,540.673,538.805,0.0
53136.0,STARLINK-4152,PAYLOAD,2024-07-24 16:44:00,15.08835125,0.0001713,53.2195,316.1722,83.8735,276.2452,1.6724e-05,-2.2e-07,0.0,0 STARLINK-4152,1 53136U 22083E   24206.69723348 -.00000022  00000-0  16724-4 0  9998,2 53136  53.2195 316.1722 0001713  83.8735 276.2452 15.08835125112328,6917.895,95.438,540.945,538.575,0.0
53136.0,STARLINK-4152,PAYLOAD,2024-07-25 07:02:29,15.08840401,0.0001678,53.2193,313.4948,88.0606,272.0578,9.4327e-05,1.214e-05,0.0,0 STARLINK-4152,1 53136U 22083E   24207.29339209  .00001214  00000-0  94327-4 0  9992,2 53136  53.2193 313.4948 0001678  88.0606 272.0578 15.08840401112775,6917.879,95.438,540.905,538.583,0.0
53136.0,STARLINK-4152,PAYLOAD,2024-07-26 00:31:43,15.08845733,0.0001706,53.2185,310.2237,86.4792,273.6395,0.00017835,2.552e-05,0.0,0 STARLINK-4152,1 53136U 22083E   24208.02202988  .00002552  00000-0  17835-3 0  9991,2 53136  53.2185 310.2237 0001706  86.4792 273.6395 15.08845733112522,6917.863,95.437,540.908,538.548,0.0
53136.0,STARLINK-4152,PAYLOAD,2024-07-26 11:39:24,15.08847168,0.0001444,53.2178,308.143,83.4616,276.654,0.00016229,2.296e-05,0.0,0 STARLINK-4152,1 53136U 22083E   24208.48570540  .00002296  00000-0  16229-3 0  9994,2 53136  53.2178 308.1430 0001444  83.4616 276.6540 15.08847168112952,6917.858,95.437,540.722,538.725,0.0
53136.0,STARLINK-4152,PAYLOAD,2024-07-26 13:14:48,15.08839691,0.0001344,53.2178,307.8425,105.4429,254.6711,0.00057767,8.918e-05,0.0,0 STARLINK-4152,1 53136U 22083E   24208.55194888  .00008918  00000-0  57767-3 0  9998,2 53136  53.2178 307.8425 0001344 105.4429 254.6711 15.08839691112967,6917.881,95.438,540.676,538.817,0.0
